[{"OBJECT_NAME":"STARLINK-34970","OBJECT_ID":"2025-194S","EPOCH":"2026-03-09T13:24:00.112032","MEAN_MOTION":15.05626272,"ECCENTRICITY":0.00017003,"INCLINATION":97.6018,"RA_OF_ASC_NODE":284.1979,"ARG_OF_PERICENTER":72.0647,"MEAN_ANOMALY":288.0765,"EPHEMERIS_TYPE":0,"CLASSIFICATION_TYPE":"U","NORAD_CAT_ID":65450,"ELEMENT_SET_NO":999,"REV_AT_EPOCH":2962,"BSTAR":-0.00012112828,"MEAN_MOTION_DOT":-1.807e-5,"MEAN_MOTION_DDOT":0},{"OBJECT_NAME":"CZ-6A R\/B","OBJECT_ID":"2024-126D","EPOCH":"2026-03-09T19:23:06.789408","MEAN_MOTION":15.13279149,"ECCENTRICITY":0.00704729,"INCLINATION":97.7886,"RA_OF_ASC_NODE":97.6113,"ARG_OF_PERICENTER":100.2752,"MEAN_ANOMALY":260.6434,"EPHEMERIS_TYPE":0,"CLASSIFICATION_TYPE":"U","NORAD_CAT_ID":60214,"ELEMENT_SET_NO":999,"REV_AT_EPOCH":9240,"BSTAR":0.00030839807,"MEAN_MOTION_DOT":5.76e-5,"MEAN_MOTION_DDOT":0}]
